{"type": "FeatureCollection", "features": [ {"type": "Feature", "properties": {"norad_id": 44804, "name": "CARTOSAT-3", "group": "resource", "lat": -33.724612130323266, "lon": -128.94306421471885, "alt_km": 523.4225489162936, "timestamp": "2025-12-22T14:45:57.042645+00:00", "meta": {"OBJECT_NAME": "CARTOSAT-3", "OBJECT_ID": "2019-081A", "EPOCH": "2025-12-22T05:55:26.174208", "MEAN_MOTION": 15.19225726, "ECCENTRICITY": 0.00137383, "INCLINATION": 97.4572, "RA_OF_ASC_NODE": 55.7094, "ARG_OF_PERICENTER": 53.3175, "MEAN_ANOMALY": 306.932, "EPHEMERIS_TYPE": 0, "CLASSIFICATION_TYPE": "U", "NORAD_CAT_ID": 44804, "ELEMENT_SET_NO": 999, "REV_AT_EPOCH": 33660, "BSTAR": 0.00019145063, "MEAN_MOTION_DOT": 3.973e-05, "MEAN_MOTION_DDOT": 0}, "tle": {"line1": "1 44804U 19081A   25356.24683072  .00003973  00000+0  19145-3 0  9996", "line2": "2 44804  97.4572  55.7094 0013738  53.3175 306.9320 15.19225726336603"}}, "geometry": {"type": "Point", "coordinates": [-128.94306421471885, -33.724612130323266]}}, {"type": "Feature", "properties": {"norad_id": 44819, "name": "GAOFEN-12 01", "group": "resource", "lat": 29.628333386135235, "lon": -1.8414780367027734, "alt_km": 627.0481296106518, "timestamp": "2025-12-22T14:45:57.042655+00:00", "meta": {"OBJECT_NAME": "GAOFEN-12 01", "OBJECT_ID": "2019-082A", "EPOCH": "2025-12-22T06:31:17.853888", "MEAN_MOTION": 14.80668074, "ECCENTRICITY": 0.00019705, "INCLINATION": 97.8124, "RA_OF_ASC_NODE": 2.3025, "ARG_OF_PERICENTER": 188.4577, "MEAN_ANOMALY": 171.6603, "EPHEMERIS_TYPE": 0, "CLASSIFICATION_TYPE": "U", "NORAD_CAT_ID": 44819, "ELEMENT_SET_NO": 999, "REV_AT_EPOCH": 32791, "BSTAR": 6.7857554e-05, "MEAN_MOTION_DOT": 4.71e-06, "MEAN_MOTION_DDOT": 0}, "tle": {"line1": "1 44819U 19082A   25356.27173442  .00000471  00000+0  67858-4 0  9996", "line2": "2 44819  97.8124   2.3025 0001970 188.4577 171.6603 14.80668074327918"}}, "geometry": {"type": "Point", "coordinates": [-1.8414780367027734, 29.628333386135235]}}, {"type": "Feature", "properties": {"norad_id": 44873, "name": "CSG-1", "group": "resource", "lat": -13.943491271132151, "lon": -4.1802713706145616, "alt_km": 627.531632943972, "timestamp": "2025-12-22T14:45:57.042666+00:00", "meta": {"OBJECT_NAME": "CSG-1", "OBJECT_ID": "2019-092A", "EPOCH": "2025-12-22T05:47:32.315136", "MEAN_MOTION": 14.82152562, "ECCENTRICITY": 0.00014729, "INCLINATION": 97.8803, "RA_OF_ASC_NODE": 177.4223, "ARG_OF_PERICENTER": 85.3431, "MEAN_ANOMALY": 274.795, "EPHEMERIS_TYPE": 0, "CLASSIFICATION_TYPE": "U", "NORAD_CAT_ID": 44873, "ELEMENT_SET_NO": 999, "REV_AT_EPOCH": 32526, "BSTAR": 7.4486944e-05, "MEAN_MOTION_DOT": 5.41e-06, "MEAN_MOTION_DDOT": 0}, "tle": {"line1": "1 44873U 19092A   25356.24134624  .00000541  00000+0  74487-4 0  9997", "line2": "2 44873  97.8803 177.4223 0001472  85.3431 274.7950 14.82152562325265"}}, "geometry": {"type": "Point", "coordinates": [-4.1802713706145616, -13.943491271132151]}}, {"type": "Feature", "properties": {"norad_id": 46277, "name": "NEMO-HD", "group": "resource", "lat": -78.37216453177513, "lon": -162.43891084279255, "alt_km": 452.6928392890977, "timestamp": "2025-12-22T14:45:57.042676+00:00", "meta": {"OBJECT_NAME": "NEMO-HD", "OBJECT_ID": "2020-061F", "EPOCH": "2025-12-22T05:50:31.767936", "MEAN_MOTION": 15.40510477, "ECCENTRICITY": 0.00012666, "INCLINATION": 97.2195, "RA_OF_ASC_NODE": 55.2209, "ARG_OF_PERICENTER": 52.8163, "MEAN_ANOMALY": 307.3199, "EPHEMERIS_TYPE": 0, "CLASSIFICATION_TYPE": "U", "NORAD_CAT_ID": 46277, "ELEMENT_SET_NO": 999, "REV_AT_EPOCH": 29470, "BSTAR": 0.00028470803, "MEAN_MOTION_DOT": 0.00011473, "MEAN_MOTION_DDOT": 0}, "tle": {"line1": "1 46277U 20061F   25356.24342324  .00011473  00000+0  28471-3 0  9990", "line2": "2 46277  97.2195  55.2209 0001266  52.8163 307.3199 15.40510477294702"}}, "geometry": {"type": "Point", "coordinates": [-162.43891084279255, -78.37216453177513]}}, {"type": "Feature", "properties": {"norad_id": 46984, "name": "SENTINEL-6A", "group": "resource", "lat": -65.70255929258502, "lon": 61.76519898375511, "alt_km": 1338.146297043787, "timestamp": "2025-12-22T14:45:57.042686+00:00", "meta": {"OBJECT_NAME": "SENTINEL-6A", "OBJECT_ID": "2020-086A", "EPOCH": "2025-12-22T03:58:12.639648", "MEAN_MOTION": 12.80930818, "ECCENTRICITY": 0.00077343, "INCLINATION": 66.0396, "RA_OF_ASC_NODE": 142.7305, "ARG_OF_PERICENTER": 269.4103, "MEAN_ANOMALY": 90.6026, "EPHEMERIS_TYPE": 0, "CLASSIFICATION_TYPE": "U", "NORAD_CAT_ID": 46984, "ELEMENT_SET_NO": 999, "REV_AT_EPOCH": 23765, "BSTAR": -4.6549991e-05, "MEAN_MOTION_DOT": -7.2e-07, "MEAN_MOTION_DDOT": 0}, "tle": {"line1": "1 46984U 20086A   25356.16542407 -.00000072  00000+0 -46550-4 0  9991", "line2": "2 46984  66.0396 142.7305 0007734 269.4103  90.6026 12.80930818237657"}}, "geometry": {"type": "Point", "coordinates": [61.76519898375511, -65.70255929258502]}}, {"type": "Feature", "properties": {"norad_id": 48079, "name": "GAOFEN-12 02", "group": "resource", "lat": 41.506455425442674, "lon": -16.561792589824897, "alt_km": 621.8809759481073, "timestamp": "2025-12-22T14:45:57.042696+00:00", "meta": {"OBJECT_NAME": "GAOFEN-12 02", "OBJECT_ID": "2021-026A", "EPOCH": "2025-12-22T06:28:03.212832", "MEAN_MOTION": 14.8068603, "ECCENTRICITY": 0.00035953, "INCLINATION": 97.9855, "RA_OF_ASC_NODE": 350.23, "ARG_OF_PERICENTER": 82.0899, "MEAN_ANOMALY": 278.0721, "EPHEMERIS_TYPE": 0, "CLASSIFICATION_TYPE": "U", "NORAD_CAT_ID": 48079, "ELEMENT_SET_NO": 999, "REV_AT_EPOCH": 25558, "BSTAR": 6.8483833e-05, "MEAN_MOTION_DOT": 4.74e-06, "MEAN_MOTION_DDOT": 0}, "tle": {"line1": "1 48079U 21026A   25356.26948163  .00000474  00000+0  68484-4 0  9997", "line2": "2 48079  97.9855 350.2300 0003595  82.0899 278.0721 14.80686030255582"}}, "geometry": {"type": "Point", "coordinates": [-16.561792589824897, 41.506455425442674]}}, {"type": "Feature", "properties": {"norad_id": 48268, "name": "PLEIADES NEO 3", "group": "resource", "lat": 35.274755123002464, "lon": -105.45191473260198, "alt_km": 621.1399137729259, "timestamp": "2025-12-22T14:45:57.042707+00:00", "meta": {"OBJECT_NAME": "PLEIADES NEO 3", "OBJECT_ID": "2021-034A", "EPOCH": "2025-12-22T06:00:47.635776", "MEAN_MOTION": 14.81675064, "ECCENTRICITY": 0.00014005, "INCLINATION": 97.8949, "RA_OF_ASC_NODE": 68.5555, "ARG_OF_PERICENTER": 90.0616, "MEAN_ANOMALY": 270.0757, "EPHEMERIS_TYPE": 0, "CLASSIFICATION_TYPE": "U", "NORAD_CAT_ID": 48268, "ELEMENT_SET_NO": 999, "REV_AT_EPOCH": 25145, "BSTAR": 5.9676016e-05, "MEAN_MOTION_DOT": 4.18e-06, "MEAN_MOTION_DDOT": 0}, "tle": {"line1": "1 48268U 21034A   25356.25055134  .00000418  00000+0  59676-4 0  9993", "line2": "2 48268  97.8949  68.5555 0001400  90.0616 270.0757 14.81675064251454"}}, "geometry": {"type": "Point", "coordinates": [-105.45191473260198, 35.274755123002464]}}, {"type": "Feature", "properties": {"norad_id": 49070, "name": "PLEIADES NEO 4", "group": "resource", "lat": -35.45181288822241, "lon": 74.58126078582018, "alt_km": 630.8152969307603, "timestamp": "2025-12-22T14:45:57.042717+00:00", "meta": {"OBJECT_NAME": "PLEIADES NEO 4", "OBJECT_ID": "2021-073E", "EPOCH": "2025-12-20T17:32:43.601280", "MEAN_MOTION": 14.81672177, "ECCENTRICITY": 0.00013249, "INCLINATION": 97.8951, "RA_OF_ASC_NODE": 67.0538, "ARG_OF_PERICENTER": 89.6187, "MEAN_ANOMALY": 270.5178, "EPHEMERIS_TYPE": 0, "CLASSIFICATION_TYPE": "U", "NORAD_CAT_ID": 49070, "ELEMENT_SET_NO": 999, "REV_AT_EPOCH": 23494, "BSTAR": -3.6645539e-05, "MEAN_MOTION_DOT": -3.4e-06, "MEAN_MOTION_DDOT": 0}, "tle": {"line1": "1 49070U 21073E   25354.73106020 -.00000340  00000+0 -36646-4 0  9998", "line2": "2 49070  97.8951  67.0538 0001324  89.6187 270.5178 14.81672177234945"}}, "geometry": {"type": "Point", "coordinates": [74.58126078582018, -35.45181288822241]}}, {"type": "Feature", "properties": {"norad_id": 49260, "name": "LANDSAT 9", "group": "resource", "lat": -8.987428601270201, "lon": -116.725600865248, "alt_km": 706.7124470478593, "timestamp": "2025-12-22T14:45:57.042727+00:00", "meta": {"OBJECT_NAME": "LANDSAT 9", "OBJECT_ID": "2021-088A", "EPOCH": "2025-12-22T04:00:46.820448", "MEAN_MOTION": 14.57107311, "ECCENTRICITY": 0.00010969, "INCLINATION": 98.2082, "RA_OF_ASC_NODE": 64.1411, "ARG_OF_PERICENTER": 92.1873, "MEAN_ANOMALY": 267.9451, "EPHEMERIS_TYPE": 0, "CLASSIFICATION_TYPE": "U", "NORAD_CAT_ID": 49260, "ELEMENT_SET_NO": 999, "REV_AT_EPOCH": 22522, "BSTAR": 0.00010286136, "MEAN_MOTION_DOT": 4.18e-06, "MEAN_MOTION_DDOT": 0}, "tle": {"line1": "1 49260U 21088A   25356.16720857  .00000418  00000+0  10286-3 0  9999", "line2": "2 49260  98.2082  64.1411 0001096  92.1873 267.9451 14.57107311225222"}}, "geometry": {"type": "Point", "coordinates": [-116.725600865248, -8.987428601270201]}}, {"type": "Feature", "properties": {"norad_id": 51444, "name": "CSG-2", "group": "resource", "lat": 13.692429462981787, "lon": 175.85517990627824, "alt_km": 623.2365189101665, "timestamp": "2025-12-22T14:45:57.042737+00:00", "meta": {"OBJECT_NAME": "CSG-2", "OBJECT_ID": "2022-008A", "EPOCH": "2025-12-22T06:36:08.564832", "MEAN_MOTION": 14.82153014, "ECCENTRICITY": 0.00014913, "INCLINATION": 97.8799, "RA_OF_ASC_NODE": 177.454, "ARG_OF_PERICENTER": 83.9093, "MEAN_ANOMALY": 276.229, "EPHEMERIS_TYPE": 0, "CLASSIFICATION_TYPE": "U", "NORAD_CAT_ID": 51444, "ELEMENT_SET_NO": 999, "REV_AT_EPOCH": 21038, "BSTAR": 7.9936608e-05, "MEAN_MOTION_DOT": 5.84e-06, "MEAN_MOTION_DDOT": 0}, "tle": {"line1": "1 51444U 22008A   25356.27509913  .00000584  00000+0  79937-4 0  9992", "line2": "2 51444  97.8799 177.4540 0001491  83.9093 276.2290 14.82153014210385"}}, "geometry": {"type": "Point", "coordinates": [175.85517990627824, 13.692429462981787]}}]}